[{"col1":"1 39446U 13066AG  25070.82557634  .00008943  00000+0  87243-3 0  9996"},{"col1":"2 39446  97.8147  22.3744 0056758  57.8584 302.8124 14.91446522608523"},{"col1":"0"},{"col1":"0"},{"col1":"0"}]
